BEIDOU-3 G4             
1 56564U 23066A   24189.79632991 -.00000113  00000+0  00000+0 0  9997
2 56564   2.0718 288.2126 0005755 206.1227 238.5041  1.00273378  4296
BEIDOU-3 M25            
1 58654U 23207A   24189.44631703 -.00000049  00000+0  00000+0 0  9996
2 58654  55.1253  86.3757 0002395 316.1727  43.8479  1.86232396  3629
BEIDOU-3 M26            
1 58655U 23207B   24189.24531432 -.00000051  00000+0  00000+0 0  9996
2 58655  55.1271  86.3679 0002688 282.9372  77.0713  1.86232087  3609
GSAT0225 (PRN E29)      
1 59598U 24079A   24162.57006490  .00000018  00000+0  00000+0 0  9991
2 59598  54.6844 121.6940 0021386 255.0217 286.2987  1.72327500   744
GSAT0227 (PRN E06)      
1 59600U 24079C   24162.27733522  .00000017  00000+0  00000+0 0  9994
2 59600  54.6843 121.7029 0021406 254.7950 104.9177  1.72327413   794
IRNSS-1J (NVS-01)       
1 56759U 23076A   24190.00503976 -.00000336  00000+0  00000+0 0  9997
2 56759   3.9451 265.7088 0004649  10.4808 141.5736  1.00277011  4095
COSMOS 2564 (761)       
1 54377U 22161A   24189.25120164  .00000056  00000+0  00000+0 0  9992
2 54377  64.7416 216.3098 0011549 225.2489 134.7220  2.13102181 12503
COSMOS 2569 (703K)      
1 57517U 23114A   24189.26832453 -.00000021  00000+0  00000+0 0  9995
2 57517  64.9247  96.6339 0010820 298.0419  61.8809  2.13103787  7134
GPS BIII-6  (PRN 28)    
1 55268U 23009A   24188.72607678  .00000029  00000+0  00000+0 0  9995
2 55268  55.0883 176.4011 0000687  83.2911  96.7786  2.00563085 10993
